[{"OBJECT_NAME":"GEESAT-1 05","OBJECT_ID":"2022-058E","EPOCH":"2026-03-09T23:16:32.924064","MEAN_MOTION":14.9973595,"ECCENTRICITY":0.00033659,"INCLINATION":49.9868,"RA_OF_ASC_NODE":292.6549,"ARG_OF_PERICENTER":123.1289,"MEAN_ANOMALY":236.998,"EPHEMERIS_TYPE":0,"CLASSIFICATION_TYPE":"U","NORAD_CAT_ID":52789,"ELEMENT_SET_NO":999,"REV_AT_EPOCH":20531,"BSTAR":0.00050752064,"MEAN_MOTION_DOT":6.088e-5,"MEAN_MOTION_DDOT":0},{"OBJECT_NAME":"COSMOS 2251 DEB","OBJECT_ID":"1993-036BYJ","EPOCH":"2026-02-27T08:25:05.077344","MEAN_MOTION":15.02778291,"ECCENTRICITY":0.0017194,"INCLINATION":74.0208,"RA_OF_ASC_NODE":84.7822,"ARG_OF_PERICENTER":181.9976,"MEAN_ANOMALY":194.0424,"EPHEMERIS_TYPE":0,"CLASSIFICATION_TYPE":"U","NORAD_CAT_ID":47116,"ELEMENT_SET_NO":999,"REV_AT_EPOCH":60660,"BSTAR":0.0017596726,"MEAN_MOTION_DOT":0.00023658,"MEAN_MOTION_DDOT":0}]
